NUSAT-1 (FRESCO)        
1 41557U 16033B   22360.14477242  .00022605  00000+0  54838-3 0  9994
2 41557  97.3901  98.9228 0010434  54.3211  40.1480 15.40998820366838
BEESAT-4                
1 41619U 16040W   22360.09505368  .00017849  00000+0  47852-3 0  9998
2 41619  97.1901  46.0898 0008583 138.7740 221.4155 15.38001491350100
CAS-2T & KS-1Q          
1 41847U 16066G   22359.93773114  .00000653  00000+0  10764-3 0  9993
2 41847  98.5288  64.2088 0362326 357.0299   2.8736 14.38973838321883
NAYIF-1 (EO-88)         
1 42017U 17008BX  22359.77399833  .00022779  00000+0  51690-3 0  9990
2 42017  97.2448  63.7906 0002621 283.4720  76.6235 15.43058962326483
ZHUHAI-1 02 (CAS-4B)    
1 42759U 17034B   22360.13815046  .00006131  00000+0  34682-3 0  9999
2 42759  43.0182 354.9409 0009353  56.8796  27.9240 15.13664078305386
ZHUHAI-1 01 (CAS-4A)    
1 42761U 17034D   22360.22525544  .00006515  00000+0  36664-3 0  9991
2 42761  43.0178 353.1040 0009814  58.6175   7.2594 15.13768003305408
MAX VALIER SAT          
1 42778U 17036P   22359.86248318  .00010060  00000+0  33913-3 0  9994
2 42778  97.1815  34.5574 0010227  14.7242 345.4295 15.30866930306148
RADFXSAT (FOX-1B)       
1 43017U 17073E   22359.63575780  .00005442  00000+0  40327-3 0  9998
2 43017  97.6523 245.9326 0241572 281.0730  76.3407 14.83091421275433
FOX-1D (AO-92)          
1 43137U 18004AC  22360.01068607  .00011969  00000+0  36445-3 0  9992
2 43137  97.3509  73.7837 0008020  48.7769 311.4164 15.34111736275656
DIWATA-2B               
1 43678U 18084H   22360.14500095  .00001468  00000+0  14835-3 0  9998
2 43678  97.9953 136.0321 0010179  21.5548 338.6110 14.92581585226449
ES'HAIL 2               
1 43700U 18090A   22359.85484014  .00000150  00000+0  00000+0 0  9991
2 43700   0.0203  70.6810 0001402 243.6301 113.5651  1.00272796 14943
FOX-1CLIFF (AO-95)      
1 43770U 18099N   22359.63637286  .00002771  00000+0  24204-3 0  9991
2 43770  97.5978  60.9010 0013612 358.6563   1.4621 14.97528005221610
ITASAT 1                
1 43786U 18099AE  22359.75275878  .00001805  00000+0  15934-3 0  9993
2 43786  97.6020  62.0239 0014460 352.4970   7.6034 14.97534282221674
JY1SAT (JO-97)          
1 43803U 18099AX  22359.89397896  .00002236  00000+0  19252-3 0  9999
2 43803  97.5972  61.9987 0014284 348.5140  11.5755 14.98279359221728
UWE-4                   
1 43880U 18111E   22359.68461504  .00004319  00000+0  35636-3 0  9992
2 43880  97.6580 262.6467 0013295  49.7282 310.5102 14.99463822218343
NEXUS (FO-99)           
1 43937U 19003F   22359.60006172  .00015653  00000+0  43884-3 0  9991
2 43937  97.1101  25.9536 0017465 181.9114 178.2067 15.36519239219260
PSAT2 (NO-104)          
1 44354U 19036R   22359.96477068  .00176300  23043-5  70178-3 0  9997
2 44354  28.5177 264.2924 0123284  12.0137 348.3373 15.74280743194472
JAISAT-1                
1 44419U 19038F   22359.48205447  .00010266  00000+0  46213-3 0  9991
2 44419  97.6593 331.8549 0017136 183.7399 176.3711 15.21153084192057
DUCHIFAT-3              
1 44854U 19089C   22360.19944951  .00005827  00000+0  43325-3 0  9998
2 44854  36.9660  42.3821 0007954 337.1309  60.8173 15.02728397166774
CAS-6 (TIANQIN 1)       
1 44881U 19093C   22360.07883911  .00000830  00000+0  11121-3 0  9996
2 44881  97.8797  76.4134 0013540 284.5028  75.4673 14.81991886163154
RS-44 & BREEZE-KM R/B   
1 44909U 19096E   22359.58037317  .00000032  00000+0  88616-4 0  9993
2 44909  82.5216 103.3089 0216771 232.6664 125.4513 12.79717299140009
ORBITAL FACTORY 2 (OF-2)
1 45113U 19071C   22359.80336302  .00053879  00000+0  62233-3 0  9998
2 45113  51.6315 189.2179 0010406 169.5812 190.5399 15.61296488163081
HUSKYSAT-1 (HO-107)     
1 45119U 19071J   22359.90239204  .00040149  00000+0  53336-3 0  9998
2 45119  51.6317 191.3441 0010278 163.2623 196.8711 15.57744200163052
BY70-2                  
1 45857U 20042B   22360.09451534  .00011167  00000+0  13839-2 0  9992
2 45857  97.9421  75.3242 0009763 208.4671 151.5870 14.82818186133820
SALSAT                  
1 46495U 20068K   22359.78437476  .00003166  00000+0  22365-3 0  9997
2 46495  97.7525 301.4579 0016107 354.9611   5.1450 15.05558194122966
BY70-3                  
1 46839U 20079N   22360.23052347  .00055127  00000+0  82284-3 0  9993
2 46839  97.1780  70.9541 0004040   9.1135  76.6891 15.54876402119894
RADFXSAT-2 (AO-109)     
1 47311U 21002C   22359.47601722  .00010404  00000+0  36511-3 0  9998
2 47311  60.6849   1.3040 0039162  87.8598 272.6976 15.29268367107630
UVSQ-SAT                
1 47438U 21006AB  22359.39159508  .00007769  00000+0  38064-3 0  9998
2 47438  97.4125  54.5142 0010572 339.0011  21.0788 15.18376173106228
DIY-1 (ARDUIQUBE)       
1 47963U 21022AH  22359.65899219  .00023830  00000+0  10458-2 0  9991
2 47963  97.5173 259.5364 0012870 181.6998 178.4196 15.21877126 95939
XW-3 (CAS-9)            
1 50466U 21131B   22360.14384063  .00000235  00000+0  91190-4 0  9994
2 50466  98.5672  77.1743 0003516 301.3300  58.7542 14.38602619 52473
TEVEL-3                 
1 50988U 22002E   22360.13061618  .00011168  00000+0  55755-3 0  9991
2 50988  97.4605  64.0334 0010195 115.1443 275.2841 15.17617323 52459
TEVEL-8                 
1 50989U 22002F   22360.14251844  .00011196  00000+0  55979-3 0  9994
2 50989  97.4616  64.0848 0010283 115.9907 274.4624 15.17561293 52457
TEVEL-5                 
1 50998U 22002Q   22360.15278546  .00011736  00000+0  57601-3 0  9997
2 50998  97.4601  64.2741 0011788 111.0893 278.4236 15.18183929 52479
TEVEL-6                 
1 50999U 22002R   22360.15221483  .00011794  00000+0  57869-3 0  9996
2 50999  97.4595  64.2702 0012002 111.6706 280.1989 15.18191139 52475
TEVEL-1                 
1 51013U 22002AF  22360.13628465  .00011190  00000+0  55908-3 0  9995
2 51013  97.4598  64.0025 0010144 115.5077 275.0654 15.17587520 52453
TEVEL-7                 
1 51062U 22002CG  22360.14455519  .00011334  00000+0  56661-3 0  9995
2 51062  97.4610  64.0655 0010363 114.2194 276.1469 15.17562630 52451
TEVEL-4                 
1 51063U 22002CH  22360.14651383  .00011279  00000+0  56422-3 0  9996
2 51063  97.4616  64.0617 0010306 114.0663 276.0868 15.17542373 52456
TEVEL-2                 
1 51069U 22002CP  22360.13243431  .00011239  00000+0  56111-3 0  9993
2 51069  97.4593  64.0127 0010023 114.3919 276.0775 15.17614035 52457
GREENCUBE               
1 53106U 22080B   22354.06292525 -.00000003  00000+0  00000+0 0  9996
2 53106  70.1740  21.9554 0009007 225.1214 134.8715  6.42557574 10246
YUZGU 9 (RS3S)          
1 53308U 98067TT  22360.09156376  .00161919  00000+0  99631-3 0  9996
2 53308  51.6341  95.0273 0005674 303.2013  56.8442 15.76172559 24633
YUZGU 7 (RS1S)          
1 53309U 98067TU  22359.99495276  .00138692  00000+0  81655-3 0  9998
2 53309  51.6306  95.1203 0006095 304.7900  55.2526 15.77245048 24572
YUZGU 11 (RS5S)         
1 53310U 98067TV  22359.89944524  .00164387  00000+0  10083-2 0  9990
2 53310  51.6346  95.9940 0005838 300.5064  59.5359 15.76235374 24585
YUZGU 12 (RS6S)         
1 53311U 98067TW  22359.83282993  .00190562  00000+0  10568-2 0  9992
2 53311  51.6310  95.5324 0005882 306.3385  53.7072 15.78421298 24603
TSIOLKOVSKY-RYAZAN 1 (*)
1 53312U 98067TX  22359.74919108  .00172188  00000+0  10308-2 0  9994
2 53312  51.6320  96.4892 0006552 302.1971  57.8393 15.76755940 24529
TSIOLKOVSKY-RYAZAN 2 (*)
1 53313U 98067TY  22359.99635133  .00170554  00000+0  10126-2 0  9998
2 53313  51.6338  95.1414 0006279 307.2603  52.7824 15.76950459 24614
YUZGU 10 (RS4S)         
1 53321U 98067TZ  22359.82286591  .00169695  00000+0  10277-2 0  9990
2 53321  51.6347  96.2307 0005888 301.3583  58.6841 15.76506986 24585
RS29S (SXC3-2110 CYCLO*)
1 53373U 22096D   22360.08146356  .00015925  00000+0  58542-3 0  9994
2 53373  97.4282 260.7183 0003394  65.3123  47.9653 15.27975873 21169
RS32S (SXC3-212 MONITO*)
1 53374U 22096E   22360.07371443  .00014999  00000+0  55170-3 0  9995
2 53374  97.4279 260.7224 0003243  59.5381  56.2907 15.27971852 21164
RS34S (SXC3-218 KUZBAS*)
1 53375U 22096F   22360.15595459  .00012091  00000+0  45203-3 0  9997
2 53375  97.4285 260.7679 0003270  61.6581  43.9771 15.27486103 21175
RS23S (SXC3-21 UTMN)    
1 53376U 22096G   22360.22548741  .00013421  00000+0  49956-3 0  9995
2 53376  97.4286 260.8472 0003209  58.4555  93.4588 15.27603982 21189
RS28S (SXC3-214 MIET-A*)
1 53377U 22096H   22360.22598190  .00012630  00000+0  47177-3 0  9993
2 53377  97.4285 260.8478 0003346  58.0406  93.2423 15.27501529 21188
RS26S (KAI-1)           
1 53378U 22096J   22360.17153360  .00011185  00000+0  42150-3 0  9994
2 53378  97.4285 260.7725 0003134  54.1495 111.9700 15.27242156 21176
RS19S (SXC3-219 ISOI)   
1 53381U 22096M   22360.18427956  .00012999  00000+0  47776-3 0  9997
2 53381  97.4285 260.9037 0003636 348.6851 170.8371 15.28029181 21183
RS21S (CUBESX-HSE-2)    
1 53383U 22096P   22360.23843855  .00013168  00000+0  48289-3 0  9994
2 53383  97.4288 260.9704 0003707 347.6759 131.8340 15.28100272 21199
RS30S (SXC3-217 SIREN)  
1 53384U 22096Q   22360.24634565  .00012279  00000+0  45367-3 0  9998
2 53384  97.4288 260.9628 0003839 344.3634 145.5626 15.27870223 21195
RS20S (GEOSCAN-EDELVEIS)
1 53385U 22096R   22360.20141512  .00016808  00000+0  59886-3 0  9993
2 53385  97.4282 261.0286 0004206 344.4405 168.1744 15.28988993 21229
RS33S (SXC3-215 VIZARD) 
1 53386U 22096S   22360.15135927  .00019473  00000+0  67393-3 0  9994
2 53386  97.4284 261.0870 0004799 342.3507 156.2685 15.29905090 21217
CAS-5A (FO-118)         
1 54684U 22167C   22360.18489760  .00008108  00000+0  51585-3 0  9994
2 54684  97.5390 134.8861 0014368 204.8277 278.4913 15.08970980  2547
CAS-10                  
1 54816U 21035C   22360.05297285  .00071273  00000+0  79804-3 0  9996
2 54816  41.4772 130.8322 0007811 243.2233 116.7813 15.61705778  1124
